{
  "type": "FeatureCollection",
  "features": [
    {
      "type": "Feature",
      "properties": {
        "norad_id": 31463,
        "name": "FENGYUN 1C DEB",
        "group": "fengyun-1c-debris",
        "lat": 14.326836865994503,
        "lon": -17.876369834408003,
        "alt_km": 625.0954768017509,
        "timestamp": "2025-12-27T22:26:48.885541+00:00",
        "meta_object_name": "FENGYUN 1C DEB",
        "meta_object_id": "1999-025BVB",
        "meta_epoch": "2025-12-23T04:45:01.858752",
        "meta_mean_motion": 14.36987164,
        "meta_eccentricity": 0.02131915,
        "meta_inclination": 99.0817,
        "meta_ra_of_asc_node": 339.4644,
        "meta_arg_of_pericenter": 9.2607,
        "meta_mean_anomaly": 351.2414,
        "meta_ephemeris_type": 0,
        "meta_classification_type": "U",
        "meta_norad_cat_id": 31463,
        "meta_element_set_no": 999,
        "meta_rev_at_epoch": 64870,
        "meta_bstar": 0.00056955164,
        "meta_mean_motion_dot": 2.135e-05,
        "meta_mean_motion_ddot": 0,
        "tle_line1": "1 31463U 99025BVB 25357.19793818  .00002135  00000+0  56955-3 0  9993",
        "tle_line2": "2 31463  99.0817 339.4644 0213191   9.2607 351.2414 14.36987164648701"
      },
      "geometry": {
        "type": "Point",
        "coordinates": [
          -17.876369834408003,
          14.326836865994503
        ]
      }
    },
    {
      "type": "Feature",
      "properties": {
        "norad_id": 31464,
        "name": "FENGYUN 1C DEB",
        "group": "fengyun-1c-debris",
        "lat": 80.60740851450508,
        "lon": -62.218263642452456,
        "alt_km": 851.7046761436532,
        "timestamp": "2025-12-27T22:26:48.885551+00:00",
        "meta_object_name": "FENGYUN 1C DEB",
        "meta_object_id": "1999-025BVC",
        "meta_epoch": "2025-12-27T08:41:13.052832",
        "meta_mean_motion": 14.12493226,
        "meta_eccentricity": 0.0043786,
        "meta_inclination": 98.7931,
        "meta_ra_of_asc_node": 47.8748,
        "meta_arg_of_pericenter": 200.3512,
        "meta_mean_anomaly": 219.6773,
        "meta_ephemeris_type": 0,
        "meta_classification_type": "U",
        "meta_norad_cat_id": 31464,
        "meta_element_set_no": 999,
        "meta_rev_at_epoch": 94886,
        "meta_bstar": 0.00033702,
        "meta_mean_motion_dot": 5.85e-06,
        "meta_mean_motion_ddot": 0,
        "tle_line1": "1 31464U 99025BVC 25361.36195663  .00000585  00000+0  33702-3 0  9994",
        "tle_line2": "2 31464  98.7931  47.8748 0043786 200.3512 219.6773 14.12493226948860"
      },
      "geometry": {
        "type": "Point",
        "coordinates": [
          -62.218263642452456,
          80.60740851450508
        ]
      }
    },
    {
      "type": "Feature",
      "properties": {
        "norad_id": 31466,
        "name": "FENGYUN 1C DEB",
        "group": "fengyun-1c-debris",
        "lat": -39.340331965550156,
        "lon": -60.17844460956817,
        "alt_km": 707.8809926220983,
        "timestamp": "2025-12-27T22:26:48.885561+00:00",
        "meta_object_name": "FENGYUN 1C DEB",
        "meta_object_id": "1999-025BVE",
        "meta_epoch": "2025-12-26T00:55:31.560672",
        "meta_mean_motion": 14.18538299,
        "meta_eccentricity": 0.02987418,
        "meta_inclination": 99.0886,
        "meta_ra_of_asc_node": 290.3365,
        "meta_arg_of_pericenter": 270.9055,
        "meta_mean_anomaly": 85.7907,
        "meta_ephemeris_type": 0,
        "meta_classification_type": "U",
        "meta_norad_cat_id": 31466,
        "meta_element_set_no": 999,
        "meta_rev_at_epoch": 96517,
        "meta_bstar": 0.00018244871,
        "meta_mean_motion_dot": 5.29e-06,
        "meta_mean_motion_ddot": 0,
        "tle_line1": "1 31466U 99025BVE 25360.03855973  .00000529  00000+0  18245-3 0  9999",
        "tle_line2": "2 31466  99.0886 290.3365 0298741 270.9055  85.7907 14.18538299965173"
      },
      "geometry": {
        "type": "Point",
        "coordinates": [
          -60.17844460956817,
          -39.340331965550156
        ]
      }
    },
    {
      "type": "Feature",
      "properties": {
        "norad_id": 31468,
        "name": "FENGYUN 1C DEB",
        "group": "fengyun-1c-debris",
        "lat": 47.5148039172292,
        "lon": -173.4753780566927,
        "alt_km": 615.7415007037634,
        "timestamp": "2025-12-27T22:26:48.885571+00:00",
        "meta_object_name": "FENGYUN 1C DEB",
        "meta_object_id": "1999-025BVG",
        "meta_epoch": "2025-12-26T19:17:20.050656",
        "meta_mean_motion": 14.46627231,
        "meta_eccentricity": 0.01671038,
        "meta_inclination": 98.1687,
        "meta_ra_of_asc_node": 356.4097,
        "meta_arg_of_pericenter": 123.9755,
        "meta_mean_anomaly": 237.7444,
        "meta_ephemeris_type": 0,
        "meta_classification_type": "U",
        "meta_norad_cat_id": 31468,
        "meta_element_set_no": 999,
        "meta_rev_at_epoch": 67575,
        "meta_bstar": 0.0003535945,
        "meta_mean_motion_dot": 1.471e-05,
        "meta_mean_motion_ddot": 0,
        "tle_line1": "1 31468U 99025BVG 25360.80370429  .00001471  00000+0  35359-3 0  9996",
        "tle_line2": "2 31468  98.1687 356.4097 0167103 123.9755 237.7444 14.46627231675754"
      },
      "geometry": {
        "type": "Point",
        "coordinates": [
          -173.4753780566927,
          47.5148039172292
        ]
      }
    },
    {
      "type": "Feature",
      "properties": {
        "norad_id": 31473,
        "name": "FENGYUN 1C DEB",
        "group": "fengyun-1c-debris",
        "lat": 80.1732461150497,
        "lon": -25.51174692374776,
        "alt_km": 804.265298659363,
        "timestamp": "2025-12-27T22:26:48.885581+00:00",
        "meta_object_name": "FENGYUN 1C DEB",
        "meta_object_id": "1999-025BVM",
        "meta_epoch": "2025-12-27T08:42:00.118368",
        "meta_mean_motion": 14.29889317,
        "meta_eccentricity": 0.0064368,
        "meta_inclination": 98.5448,
        "meta_ra_of_asc_node": 34.1532,
        "meta_arg_of_pericenter": 331.3794,
        "meta_mean_anomaly": 46.3035,
        "meta_ephemeris_type": 0,
        "meta_classification_type": "U",
        "meta_norad_cat_id": 31473,
        "meta_element_set_no": 999,
        "meta_rev_at_epoch": 69730,
        "meta_bstar": 0.0015296,
        "meta_mean_motion_dot": 3.985e-05,
        "meta_mean_motion_ddot": 0,
        "tle_line1": "1 31473U 99025BVM 25361.36250137  .00003985  00000+0  15296-2 0  9996",
        "tle_line2": "2 31473  98.5448  34.1532 0064368 331.3794  46.3035 14.29889317697301"
      },
      "geometry": {
        "type": "Point",
        "coordinates": [
          -25.51174692374776,
          80.1732461150497
        ]
      }
    },
    {
      "type": "Feature",
      "properties": {
        "norad_id": 31474,
        "name": "FENGYUN 1C DEB",
        "group": "fengyun-1c-debris",
        "lat": 38.68649351035955,
        "lon": 40.64462977731644,
        "alt_km": 884.1026845090155,
        "timestamp": "2025-12-27T22:26:48.885591+00:00",
        "meta_object_name": "FENGYUN 1C DEB",
        "meta_object_id": "1999-025BVN",
        "meta_epoch": "2025-12-27T08:38:27.362688",
        "meta_mean_motion": 14.10661139,
        "meta_eccentricity": 0.0072046,
        "meta_inclination": 99.1443,
        "meta_ra_of_asc_node": 47.4701,
        "meta_arg_of_pericenter": 166.411,
        "meta_mean_anomaly": 193.9022,
        "meta_ephemeris_type": 0,
        "meta_classification_type": "U",
        "meta_norad_cat_id": 31474,
        "meta_element_set_no": 999,
        "meta_rev_at_epoch": 95176,
        "meta_bstar": 0.0014609,
        "meta_mean_motion_dot": 2.627e-05,
        "meta_mean_motion_ddot": 0,
        "tle_line1": "1 31474U 99025BVN 25361.36003892  .00002627  00000+0  14609-2 0  9990",
        "tle_line2": "2 31474  99.1443  47.4701 0072046 166.4110 193.9022 14.10661139951768"
      },
      "geometry": {
        "type": "Point",
        "coordinates": [
          40.64462977731644,
          38.68649351035955
        ]
      }
    },
    {
      "type": "Feature",
      "properties": {
        "norad_id": 31475,
        "name": "FENGYUN 1C DEB",
        "group": "fengyun-1c-debris",
        "lat": 61.8120275559563,
        "lon": -125.82071496257656,
        "alt_km": 606.9140483186939,
        "timestamp": "2025-12-27T22:26:48.885601+00:00",
        "meta_object_name": "FENGYUN 1C DEB",
        "meta_object_id": "1999-025BVP",
        "meta_epoch": "2025-12-23T22:59:46.307040",
        "meta_mean_motion": 14.38250709,
        "meta_eccentricity": 0.0211772,
        "meta_inclination": 98.9391,
        "meta_ra_of_asc_node": 247.1174,
        "meta_arg_of_pericenter": 74.1506,
        "meta_mean_anomaly": 288.2912,
        "meta_ephemeris_type": 0,
        "meta_classification_type": "U",
        "meta_norad_cat_id": 31475,
        "meta_element_set_no": 999,
        "meta_rev_at_epoch": 96240,
        "meta_bstar": 0.00069378,
        "meta_mean_motion_dot": 2.684e-05,
        "meta_mean_motion_ddot": 0,
        "tle_line1": "1 31475U 99025BVP 25357.95817485  .00002684  00000+0  69378-3 0  9999",
        "tle_line2": "2 31475  98.9391 247.1174 0211772  74.1506 288.2912 14.38250709962402"
      },
      "geometry": {
        "type": "Point",
        "coordinates": [
          -125.82071496257656,
          61.8120275559563
        ]
      }
    }
  ]
}